start=new Date('2023-04-27T00:00:00.000Z').valueOf();
sats=[{"TLE_LINE1":"1 52877U 22062AZ  23116.21210100 -.00011356  00000-0 -69727-3 0  9993","OBJECT_NAME":"STARLINK-4214","EPHEMERIS_TYPE":"0","ECCENTRICITY":"0.00016540","APOAPSIS":"541.010","FILE":"3894260","OBJECT_TYPE":"PAYLOAD","NORAD_CAT_ID":"52877","REV_AT_EPOCH":"4778","RA_OF_ASC_NODE":"40.9210","TLE_LINE2":"2 52877  53.2178  40.9210 0001654 144.6988 215.4114 15.08800464 47789","INCLINATION":"53.2178","BSTAR":"-0.00069727000000","MEAN_MOTION_DDOT":"0.0000000000000","RCS_SIZE":"LARGE","GP_ID":"230774037","REF_FRAME":"TEME","MEAN_MOTION_DOT":"-0.00011356","CENTER_NAME":"EARTH","COUNTRY_CODE":"US","PERIOD":"95.440","OBJECT_ID":"2022-062AZ","EPOCH":"2023-04-26T05:05:25.526400","MEAN_MOTION":"15.08800464","MEAN_ANOMALY":"215.4114","TIME_SYSTEM":"UTC","PERIAPSIS":"538.722","SITE":"AFETR","LAUNCH_DATE":"2022-06-17","SEMIMAJOR_AXIS":"6918.001","DECAY_DATE":null,"ARG_OF_PERICENTER":"144.6988","CLASSIFICATION_TYPE":"U","ELEMENT_SET_NO":"999","MEAN_ELEMENT_THEORY":"SGP4"},{"APOAPSIS":"540.588","ECCENTRICITY":"0.00010870","EPHEMERIS_TYPE":"0","OBJECT_TYPE":"PAYLOAD","FILE":"3894260","TLE_LINE1":"1 52878U 22062BA  23116.10169800 -.00008774  00000-0 -53427-3 0  9992","OBJECT_NAME":"STARLINK-4171","REV_AT_EPOCH":"4776","NORAD_CAT_ID":"52878","RA_OF_ASC_NODE":"41.4157","INCLINATION":"53.2177","TLE_LINE2":"2 52878  53.2177  41.4157 0001087 109.8349 250.2760 15.08810440 47766","MEAN_MOTION_DDOT":"0.0000000000000","GP_ID":"230772807","RCS_SIZE":"LARGE","BSTAR":"-0.00053427000000","CENTER_NAME":"EARTH","PERIOD":"95.439","COUNTRY_CODE":"US","MEAN_MOTION_DOT":"-0.00008774","REF_FRAME":"TEME","EPOCH":"2023-04-26T02:26:26.707200","MEAN_ANOMALY":"250.2760","MEAN_MOTION":"15.08810440","OBJECT_ID":"2022-062BA","SITE":"AFETR","PERIAPSIS":"539.084","LAUNCH_DATE":"2022-06-17","TIME_SYSTEM":"UTC","ELEMENT_SET_NO":"999","MEAN_ELEMENT_THEORY":"SGP4","DECAY_DATE":null,"ARG_OF_PERICENTER":"109.8349","SEMIMAJOR_AXIS":"6917.971","CLASSIFICATION_TYPE":"U"},{"TIME_SYSTEM":"UTC","LAUNCH_DATE":"2022-06-17","SITE":"AFETR","PERIAPSIS":"538.878","CLASSIFICATION_TYPE":"U","ARG_OF_PERICENTER":"69.3588","DECAY_DATE":null,"SEMIMAJOR_AXIS":"6917.945","MEAN_ELEMENT_THEORY":"SGP4","ELEMENT_SET_NO":"999","MEAN_MOTION_DOT":"-0.00008615","REF_FRAME":"TEME","COUNTRY_CODE":"US","PERIOD":"95.439","CENTER_NAME":"EARTH","OBJECT_ID":"2022-062BB","MEAN_ANOMALY":"290.7549","MEAN_MOTION":"15.08818787","EPOCH":"2023-04-26T01:38:43.552896","INCLINATION":"53.2182","TLE_LINE2":"2 52879  53.2182  41.5647 0001347  69.3588 290.7549 15.08818787 47768","RA_OF_ASC_NODE":"41.5647","BSTAR":"-0.00052415000000","GP_ID":"230773057","RCS_SIZE":"LARGE","MEAN_MOTION_DDOT":"0.0000000000000","OBJECT_NAME":"STARLINK-4139","TLE_LINE1":"1 52879U 22062BB  23116.06855964 -.00008615  00000-0 -52415-3 0  9991","FILE":"3894260","OBJECT_TYPE":"PAYLOAD","APOAPSIS":"540.742","ECCENTRICITY":"0.00013470","EPHEMERIS_TYPE":"0","REV_AT_EPOCH":"4776","NORAD_CAT_ID":"52879"},{"OBJECT_TYPE":"PAYLOAD","FILE":"3894260","ECCENTRICITY":"0.00012830","APOAPSIS":"540.705","EPHEMERIS_TYPE":"0","OBJECT_NAME":"STARLINK-4186","TLE_LINE1":"1 52880U 22062BC  23116.33723348 -.00005350  00000-0 -31853-3 0  9999","REV_AT_EPOCH":"4780","NORAD_CAT_ID":"52880","INCLINATION":"53.2169","TLE_LINE2":"2 52880  53.2169  40.3530 0001283 124.0125 236.0989 15.08816577 47809","RA_OF_ASC_NODE":"40.3530","GP_ID":"230773807","RCS_SIZE":"LARGE","MEAN_MOTION_DDOT":"0.0000000000000","BSTAR":"-0.00031853000000","PERIOD":"95.439","COUNTRY_CODE":"US","CENTER_NAME":"EARTH","MEAN_MOTION_DOT":"-0.00005350","REF_FRAME":"TEME","MEAN_ANOMALY":"236.0989","MEAN_MOTION":"15.08816577","EPOCH":"2023-04-26T08:05:36.972672","OBJECT_ID":"2022-062BC","LAUNCH_DATE":"2022-06-17","SITE":"AFETR","PERIAPSIS":"538.929","TIME_SYSTEM":"UTC","MEAN_ELEMENT_THEORY":"SGP4","ELEMENT_SET_NO":"999","CLASSIFICATION_TYPE":"U","ARG_OF_PERICENTER":"124.0125","DECAY_DATE":null,"SEMIMAJOR_AXIS":"6917.952"},{"INCLINATION":"53.2182","TLE_LINE2":"2 52881  53.2182  41.5270 0001277 106.2301 253.8832 15.08807599 47763","RA_OF_ASC_NODE":"41.5270","BSTAR":"-0.00065093000000","GP_ID":"230774538","RCS_SIZE":"LARGE","MEAN_MOTION_DDOT":"0.0000000000000","OBJECT_NAME":"STARLINK-4192","TLE_LINE1":"1 52881U 22062BD  23116.07593600 -.00010623  00000-0 -65093-3 0  9999","FILE":"3894260","OBJECT_TYPE":"PAYLOAD","ECCENTRICITY":"0.00012770","APOAPSIS":"540.728","EPHEMERIS_TYPE":"0","REV_AT_EPOCH":"4776","NORAD_CAT_ID":"52881","TIME_SYSTEM":"UTC","LAUNCH_DATE":"2022-06-17","SITE":"AFETR","PERIAPSIS":"538.961","CLASSIFICATION_TYPE":"U","DECAY_DATE":null,"ARG_OF_PERICENTER":"106.2301","SEMIMAJOR_AXIS":"6917.979","MEAN_ELEMENT_THEORY":"SGP4","ELEMENT_SET_NO":"999","MEAN_MOTION_DOT":"-0.00010623","REF_FRAME":"TEME","COUNTRY_CODE":"US","PERIOD":"95.440","CENTER_NAME":"EARTH","OBJECT_ID":"2022-062BD","MEAN_ANOMALY":"253.8832","MEAN_MOTION":"15.08807599","EPOCH":"2023-04-26T01:49:20.870400"},{"ELEMENT_SET_NO":"999","MEAN_ELEMENT_THEORY":"SGP4","SEMIMAJOR_AXIS":"6921.982","DECAY_DATE":null,"ARG_OF_PERICENTER":"80.2282","CLASSIFICATION_TYPE":"U","PERIAPSIS":"542.890","SITE":"AFETR","LAUNCH_DATE":"2022-06-17","TIME_SYSTEM":"UTC","EPOCH":"2023-04-26T08:00:01.999872","MEAN_MOTION":"15.07498962","MEAN_ANOMALY":"277.1941","OBJECT_ID":"2022-062BE","CENTER_NAME":"EARTH","COUNTRY_CODE":"US","PERIOD":"95.522","REF_FRAME":"TEME","MEAN_MOTION_DOT":"0.00443872","MEAN_MOTION_DDOT":"0.0000000000000","RCS_SIZE":"LARGE","GP_ID":"230773308","BSTAR":"0.02743900000000","RA_OF_ASC_NODE":"40.4165","TLE_LINE2":"2 52882  53.2170  40.4165 0001383  80.2282 277.1941 15.07498962  1308","INCLINATION":"53.2170","NORAD_CAT_ID":"52882","REV_AT_EPOCH":"130","EPHEMERIS_TYPE":"0","APOAPSIS":"544.805","ECCENTRICITY":"0.00013830","FILE":"3894260","OBJECT_TYPE":"PAYLOAD","TLE_LINE1":"1 52882U 22062BE  23116.33335648  .00443872  00000-0  27439-1 0  9999","OBJECT_NAME":"STARLINK-4181"},{"ELEMENT_SET_NO":"999","MEAN_ELEMENT_THEORY":"SGP4","DECAY_DATE":null,"ARG_OF_PERICENTER":"92.2620","SEMIMAJOR_AXIS":"6917.884","CLASSIFICATION_TYPE":"U","SITE":"AFETR","PERIAPSIS":"538.819","LAUNCH_DATE":"2022-07-07","TIME_SYSTEM":"UTC","EPOCH":"2023-04-26T17:27:18.202464","MEAN_ANOMALY":"267.8526","MEAN_MOTION":"15.08838703","OBJECT_ID":"2022-076A","CENTER_NAME":"EARTH","COUNTRY_CODE":"US","PERIOD":"95.438","MEAN_MOTION_DOT":"-0.00000342","REF_FRAME":"TEME","MEAN_MOTION_DDOT":"0.0000000000000","GP_ID":"230800320","RCS_SIZE":"LARGE","BSTAR":"-0.00000342040000","RA_OF_ASC_NODE":"118.6043","INCLINATION":"53.2157","TLE_LINE2":"2 52986  53.2157 118.6043 0001345  92.2620 267.8526 15.08838703 44638","REV_AT_EPOCH":"4463","NORAD_CAT_ID":"52986","ECCENTRICITY":"0.00013450","APOAPSIS":"540.680","EPHEMERIS_TYPE":"0","FILE":"3894261","OBJECT_TYPE":"PAYLOAD","TLE_LINE1":"1 52986U 22076A   23116.72729401 -.00000342  00000-0 -34204-5 0  9991","OBJECT_NAME":"STARLINK-4260"},{"INCLINATION":"53.2155","TLE_LINE2":"2 52987  53.2155 128.4232 0001295  81.9210 278.1929 15.08839963 44507","RA_OF_ASC_NODE":"128.4232","BSTAR":"0.00052540000000","GP_ID":"230800572","RCS_SIZE":"LARGE","MEAN_MOTION_DDOT":"0.0000000000000","OBJECT_NAME":"STARLINK-4259","TLE_LINE1":"1 52987U 22076B   23116.76686216  .00008084  00000-0  52540-3 0  9992","OBJECT_TYPE":"PAYLOAD","FILE":"3894261","ECCENTRICITY":"0.00012950","APOAPSIS":"540.641","EPHEMERIS_TYPE":"0","REV_AT_EPOCH":"4450","NORAD_CAT_ID":"52987","TIME_SYSTEM":"UTC","LAUNCH_DATE":"2022-07-07","SITE":"AFETR","PERIAPSIS":"538.850","CLASSIFICATION_TYPE":"U","DECAY_DATE":null,"ARG_OF_PERICENTER":"81.9210","SEMIMAJOR_AXIS":"6917.881","MEAN_ELEMENT_THEORY":"SGP4","ELEMENT_SET_NO":"999","MEAN_MOTION_DOT":"0.00008084","REF_FRAME":"TEME","COUNTRY_CODE":"US","PERIOD":"95.438","CENTER_NAME":"EARTH","OBJECT_ID":"2022-076B","MEAN_ANOMALY":"278.1929","MEAN_MOTION":"15.08839963","EPOCH":"2023-04-26T18:24:16.890624"},{"LAUNCH_DATE":"2022-07-07","SITE":"AFETR","PERIAPSIS":"538.859","TIME_SYSTEM":"UTC","MEAN_ELEMENT_THEORY":"SGP4","ELEMENT_SET_NO":"999","CLASSIFICATION_TYPE":"U","DECAY_DATE":null,"ARG_OF_PERICENTER":"73.5247","SEMIMAJOR_AXIS":"6917.881","PERIOD":"95.438","COUNTRY_CODE":"US","CENTER_NAME":"EARTH","MEAN_MOTION_DOT":"-0.00002811","REF_FRAME":"TEME","MEAN_ANOMALY":"286.5886","MEAN_MOTION":"15.08839839","EPOCH":"2023-04-26T11:00:27.855936","OBJECT_ID":"2022-076C","INCLINATION":"53.2149","TLE_LINE2":"2 52988  53.2149 119.8104 0001282  73.5247 286.5886 15.08839839 44592","RA_OF_ASC_NODE":"119.8104","GP_ID":"230773816","RCS_SIZE":"LARGE","MEAN_MOTION_DDOT":"0.0000000000000","BSTAR":"-0.00015857000000","OBJECT_TYPE":"PAYLOAD","FILE":"3894260","ECCENTRICITY":"0.00012820","APOAPSIS":"540.633","EPHEMERIS_TYPE":"0","OBJECT_NAME":"STARLINK-4291","TLE_LINE1":"1 52988U 22076C   23116.45865574 -.00002811  00000-0 -15857-3 0  9999","REV_AT_EPOCH":"4459","NORAD_CAT_ID":"52988"},{"TIME_SYSTEM":"UTC","LAUNCH_DATE":"2022-07-07","PERIAPSIS":"538.989","SITE":"AFETR","CLASSIFICATION_TYPE":"U","SEMIMAJOR_AXIS":"6917.905","ARG_OF_PERICENTER":"98.7455","DECAY_DATE":null,"MEAN_ELEMENT_THEORY":"SGP4","ELEMENT_SET_NO":"999","REF_FRAME":"TEME","MEAN_MOTION_DOT":"0.00004121","COUNTRY_CODE":"US","PERIOD":"95.438","CENTER_NAME":"EARTH","OBJECT_ID":"2022-076D","MEAN_MOTION":"15.08832072","MEAN_ANOMALY":"261.3665","EPOCH":"2023-04-26T18:18:58.690656","TLE_LINE2":"2 52989  53.2157 128.4417 0001129  98.7455 261.3665 15.08832072 44504","INCLINATION":"53.2157","RA_OF_ASC_NODE":"128.4417","BSTAR":"0.00027688000000","RCS_SIZE":"LARGE","GP_ID":"230799572","MEAN_MOTION_DDOT":"0.0000000000000","OBJECT_NAME":"STARLINK-4293","TLE_LINE1":"1 52989U 22076D   23116.76317929  .00004121  00000-0  27688-3 0  9999","FILE":"3894261","OBJECT_TYPE":"PAYLOAD","EPHEMERIS_TYPE":"0","APOAPSIS":"540.551","ECCENTRICITY":"0.00011290","NORAD_CAT_ID":"52989","REV_AT_EPOCH":"4450"}];
